start=new Date('2022-10-30T00:00:00.000Z').valueOf();
sats=[{"LAUNCH_DATE":"2022-10-05","MEAN_MOTION":"15.73205405","REF_FRAME":"TEME","FILE":"3637863","OBJECT_TYPE":"PAYLOAD","CENTER_NAME":"EARTH","ARG_OF_PERICENTER":"2.6812","PERIOD":"91.533","NORAD_CAT_ID":"53977","REV_AT_EPOCH":"130","MEAN_ELEMENT_THEORY":"SGP4","BSTAR":"-0.00020420000000","OBJECT_ID":"2022-125P","PERIAPSIS":"347.368","RCS_SIZE":"LARGE","INCLINATION":"53.2174","CLASSIFICATION_TYPE":"U","TIME_SYSTEM":"UTC","MEAN_MOTION_DDOT":"0.0000000000000","MEAN_MOTION_DOT":"-0.00029199","OBJECT_NAME":"STARLINK-5094","COUNTRY_CODE":"US","DECAY_DATE":null,"ECCENTRICITY":"0.00035320","TLE_LINE1":"1 53977U 22125P   22302.91668981 -.00029199  00000-0 -20420-3 0  9993","TLE_LINE2":"2 53977  53.2174 333.0635 0003532   2.6812  75.9316 15.73205405  1307","EPOCH":"2022-10-29T22:00:01.999584","MEAN_ANOMALY":"75.9316","APOAPSIS":"352.121","GP_ID":"216479715","ELEMENT_SET_NO":"999","SEMIMAJOR_AXIS":"6727.880","RA_OF_ASC_NODE":"333.0635","EPHEMERIS_TYPE":"0","SITE":"AFWTR"},{"ARG_OF_PERICENTER":"17.0832","CENTER_NAME":"EARTH","PERIOD":"91.518","REV_AT_EPOCH":"417","NORAD_CAT_ID":"53978","MEAN_ELEMENT_THEORY":"SGP4","MEAN_MOTION":"15.73465264","LAUNCH_DATE":"2022-10-05","REF_FRAME":"TEME","OBJECT_TYPE":"PAYLOAD","FILE":"3637480","APOAPSIS":"350.507","MEAN_ANOMALY":"175.5021","EPOCH":"2022-10-30T00:00:00.999648","TLE_LINE2":"2 53978  53.2175 332.6457 0002234  17.0832 175.5021 15.73465264  4175","GP_ID":"216445905","RA_OF_ASC_NODE":"332.6457","SEMIMAJOR_AXIS":"6727.139","ELEMENT_SET_NO":"999","SITE":"AFWTR","EPHEMERIS_TYPE":"0","INCLINATION":"53.2175","RCS_SIZE":"LARGE","PERIAPSIS":"347.501","OBJECT_ID":"2022-125Q","BSTAR":"-0.00447860000000","TIME_SYSTEM":"UTC","CLASSIFICATION_TYPE":"U","OBJECT_NAME":"STARLINK-5148","MEAN_MOTION_DOT":"-0.00593627","MEAN_MOTION_DDOT":"0.0000000000000","TLE_LINE1":"1 53978U 22125Q   22303.00001157 -.00593627  00000-0 -44786-2 0  9993","ECCENTRICITY":"0.00022340","COUNTRY_CODE":"US","DECAY_DATE":null},{"OBJECT_NAME":"STARLINK-5123","MEAN_MOTION_DOT":"-0.00011223","MEAN_MOTION_DDOT":"0.0000000000000","TLE_LINE1":"1 53979U 22125R   22303.00001157 -.00011223  00000-0 -76031-4 0  9991","ECCENTRICITY":"0.00031080","COUNTRY_CODE":"US","DECAY_DATE":null,"INCLINATION":"53.2172","RCS_SIZE":"LARGE","PERIAPSIS":"348.033","BSTAR":"-0.00007603100000","OBJECT_ID":"2022-125R","TIME_SYSTEM":"UTC","CLASSIFICATION_TYPE":"U","SEMIMAJOR_AXIS":"6728.259","RA_OF_ASC_NODE":"332.6450","ELEMENT_SET_NO":"999","SITE":"AFWTR","EPHEMERIS_TYPE":"0","APOAPSIS":"352.215","MEAN_ANOMALY":"186.1060","EPOCH":"2022-10-30T00:00:00.999648","TLE_LINE2":"2 53979  53.2172 332.6450 0003108   5.3108 186.1060 15.73072493  4172","GP_ID":"216445609","OBJECT_TYPE":"PAYLOAD","FILE":"3637458","MEAN_MOTION":"15.73072493","LAUNCH_DATE":"2022-10-05","REF_FRAME":"TEME","REV_AT_EPOCH":"417","NORAD_CAT_ID":"53979","MEAN_ELEMENT_THEORY":"SGP4","ARG_OF_PERICENTER":"5.3108","CENTER_NAME":"EARTH","PERIOD":"91.541"},{"PERIAPSIS":"347.856","BSTAR":"-0.00103130000000","OBJECT_ID":"2022-125S","INCLINATION":"53.2179","RCS_SIZE":"LARGE","CLASSIFICATION_TYPE":"U","TIME_SYSTEM":"UTC","MEAN_MOTION_DDOT":"0.0000000000000","OBJECT_NAME":"STARLINK-5133","MEAN_MOTION_DOT":"-0.00143089","COUNTRY_CODE":"US","DECAY_DATE":null,"TLE_LINE1":"1 53980U 22125S   22303.00001157 -.00143089  00000-0 -10313-2 0  9998","ECCENTRICITY":"0.00027400","EPOCH":"2022-10-30T00:00:00.999648","MEAN_ANOMALY":"187.3650","TLE_LINE2":"2 53980  53.2179 332.6454 0002740   5.7904 187.3650 15.73221190  4172","APOAPSIS":"351.543","GP_ID":"216445642","ELEMENT_SET_NO":"999","SEMIMAJOR_AXIS":"6727.835","RA_OF_ASC_NODE":"332.6454","EPHEMERIS_TYPE":"0","SITE":"AFWTR","MEAN_MOTION":"15.73221190","LAUNCH_DATE":"2022-10-05","REF_FRAME":"TEME","FILE":"3637460","OBJECT_TYPE":"PAYLOAD","CENTER_NAME":"EARTH","ARG_OF_PERICENTER":"5.7904","PERIOD":"91.532","NORAD_CAT_ID":"53980","REV_AT_EPOCH":"417","MEAN_ELEMENT_THEORY":"SGP4"},{"LAUNCH_DATE":"2022-10-05","MEAN_MOTION":"15.73272252","REF_FRAME":"TEME","FILE":"3637461","OBJECT_TYPE":"PAYLOAD","CENTER_NAME":"EARTH","ARG_OF_PERICENTER":"18.1722","PERIOD":"91.529","NORAD_CAT_ID":"53981","REV_AT_EPOCH":"417","MEAN_ELEMENT_THEORY":"SGP4","OBJECT_ID":"2022-125T","BSTAR":"-0.00019623000000","PERIAPSIS":"347.762","RCS_SIZE":"LARGE","INCLINATION":"53.2206","CLASSIFICATION_TYPE":"U","TIME_SYSTEM":"UTC","MEAN_MOTION_DDOT":"0.0000000000000","MEAN_MOTION_DOT":"-0.00028160","OBJECT_NAME":"STARLINK-5149","COUNTRY_CODE":"US","DECAY_DATE":null,"ECCENTRICITY":"0.00026640","TLE_LINE1":"1 53981U 22125T   22303.00001157 -.00028160  00000-0 -19623-3 0  9995","TLE_LINE2":"2 53981  53.2206 332.5937 0002664  18.1722 205.6328 15.73272252  4171","EPOCH":"2022-10-30T00:00:00.999648","MEAN_ANOMALY":"205.6328","APOAPSIS":"351.346","GP_ID":"216445158","ELEMENT_SET_NO":"999","RA_OF_ASC_NODE":"332.5937","SEMIMAJOR_AXIS":"6727.689","EPHEMERIS_TYPE":"0","SITE":"AFWTR"},{"MEAN_MOTION_DDOT":"0.0000000000000","MEAN_MOTION_DOT":"0.00007742","OBJECT_NAME":"STARLINK-5120","DECAY_DATE":null,"COUNTRY_CODE":"US","ECCENTRICITY":"0.00031690","TLE_LINE1":"1 53982U 22125U   22303.00001157  .00007742  00000-0  59451-4 0  9991","BSTAR":"0.00005945100000","OBJECT_ID":"2022-125U","PERIAPSIS":"347.529","RCS_SIZE":"LARGE","INCLINATION":"53.2180","CLASSIFICATION_TYPE":"U","TIME_SYSTEM":"UTC","ELEMENT_SET_NO":"999","SEMIMAJOR_AXIS":"6727.796","RA_OF_ASC_NODE":"332.6390","EPHEMERIS_TYPE":"0","SITE":"AFWTR","TLE_LINE2":"2 53982  53.2180 332.6390 0003169  14.3903 184.8157 15.73234807  4179","EPOCH":"2022-10-30T00:00:00.999648","MEAN_ANOMALY":"184.8157","APOAPSIS":"351.793","GP_ID":"216445654","FILE":"3637461","OBJECT_TYPE":"PAYLOAD","LAUNCH_DATE":"2022-10-05","MEAN_MOTION":"15.73234807","REF_FRAME":"TEME","NORAD_CAT_ID":"53982","REV_AT_EPOCH":"417","MEAN_ELEMENT_THEORY":"SGP4","CENTER_NAME":"EARTH","ARG_OF_PERICENTER":"14.3903","PERIOD":"91.531"},{"NORAD_CAT_ID":"53983","REV_AT_EPOCH":"417","MEAN_ELEMENT_THEORY":"SGP4","CENTER_NAME":"EARTH","ARG_OF_PERICENTER":"17.9706","PERIOD":"91.529","FILE":"3637461","OBJECT_TYPE":"PAYLOAD","LAUNCH_DATE":"2022-10-05","MEAN_MOTION":"15.73271798","REF_FRAME":"TEME","ELEMENT_SET_NO":"999","SEMIMAJOR_AXIS":"6727.690","RA_OF_ASC_NODE":"332.6102","EPHEMERIS_TYPE":"0","SITE":"AFWTR","TLE_LINE2":"2 53983  53.2172 332.6102 0003171  17.9706 194.9273 15.73271798  4176","EPOCH":"2022-10-30T00:00:00.999648","MEAN_ANOMALY":"194.9273","APOAPSIS":"351.689","GP_ID":"216445657","MEAN_MOTION_DDOT":"0.0000000000000","MEAN_MOTION_DOT":"-0.00004777","OBJECT_NAME":"STARLINK-5103","COUNTRY_CODE":"US","DECAY_DATE":null,"ECCENTRICITY":"0.00031710","TLE_LINE1":"1 53983U 22125V   22303.00001157 -.00004777  00000-0 -29512-4 0  9994","BSTAR":"-0.00002951200000","OBJECT_ID":"2022-125V","PERIAPSIS":"347.422","RCS_SIZE":"LARGE","INCLINATION":"53.2172","CLASSIFICATION_TYPE":"U","TIME_SYSTEM":"UTC"},{"CENTER_NAME":"EARTH","ARG_OF_PERICENTER":"12.2145","PERIOD":"91.531","NORAD_CAT_ID":"53984","REV_AT_EPOCH":"130","MEAN_ELEMENT_THEORY":"SGP4","LAUNCH_DATE":"2022-10-05","MEAN_MOTION":"15.73242072","REF_FRAME":"TEME","FILE":"3637863","OBJECT_TYPE":"PAYLOAD","TLE_LINE2":"2 53984  53.2183 333.0606 0002751  12.2145  70.6636 15.73242072  1309","EPOCH":"2022-10-29T22:00:01.999584","MEAN_ANOMALY":"70.6636","APOAPSIS":"351.491","GP_ID":"216480293","ELEMENT_SET_NO":"999","SEMIMAJOR_AXIS":"6727.775","RA_OF_ASC_NODE":"333.0606","EPHEMERIS_TYPE":"0","SITE":"AFWTR","OBJECT_ID":"2022-125W","BSTAR":"0.00011485000000","PERIAPSIS":"347.789","RCS_SIZE":"LARGE","INCLINATION":"53.2183","CLASSIFICATION_TYPE":"U","TIME_SYSTEM":"UTC","MEAN_MOTION_DDOT":"0.0000000000000","MEAN_MOTION_DOT":"0.00015557","OBJECT_NAME":"STARLINK-5142","COUNTRY_CODE":"US","DECAY_DATE":null,"ECCENTRICITY":"0.00027510","TLE_LINE1":"1 53984U 22125W   22302.91668981  .00015557  00000-0  11485-3 0  9993"},{"PERIOD":"91.531","ARG_OF_PERICENTER":"11.3786","CENTER_NAME":"EARTH","MEAN_ELEMENT_THEORY":"SGP4","REV_AT_EPOCH":"417","NORAD_CAT_ID":"53985","REF_FRAME":"TEME","MEAN_MOTION":"15.73229307","LAUNCH_DATE":"2022-10-05","OBJECT_TYPE":"PAYLOAD","FILE":"3637465","GP_ID":"216445672","APOAPSIS":"351.685","MEAN_ANOMALY":"182.4861","EPOCH":"2022-10-30T00:00:00.999648","TLE_LINE2":"2 53985  53.2180 332.6494 0002985  11.3786 182.4861 15.73229307  4173","SITE":"AFWTR","EPHEMERIS_TYPE":"0","SEMIMAJOR_AXIS":"6727.812","RA_OF_ASC_NODE":"332.6494","ELEMENT_SET_NO":"999","TIME_SYSTEM":"UTC","CLASSIFICATION_TYPE":"U","INCLINATION":"53.2180","RCS_SIZE":"LARGE","PERIAPSIS":"347.668","OBJECT_ID":"2022-125X","BSTAR":"-0.00000259930000","TLE_LINE1":"1 53985U 22125X   22303.00001157 -.00000988  00000-0 -25993-5 0  9996","ECCENTRICITY":"0.00029850","DECAY_DATE":null,"COUNTRY_CODE":"US","OBJECT_NAME":"STARLINK-5147","MEAN_MOTION_DOT":"-0.00000988","MEAN_MOTION_DDOT":"0.0000000000000"},{"SEMIMAJOR_AXIS":"6727.731","RA_OF_ASC_NODE":"332.3556","ELEMENT_SET_NO":"999","SITE":"AFWTR","EPHEMERIS_TYPE":"0","APOAPSIS":"350.913","EPOCH":"2022-10-30T00:00:00.999648","MEAN_ANOMALY":"313.1798","TLE_LINE2":"2 53986  53.2186 332.3556 0001958  28.0483 313.1798 15.73257758  4177","GP_ID":"216445665","OBJECT_NAME":"STARLINK-5119","MEAN_MOTION_DOT":"0.00011351","MEAN_MOTION_DDOT":"0.0000000000000","TLE_LINE1":"1 53986U 22125Y   22303.00001157  .00011351  00000-0  84982-4 0  9993","ECCENTRICITY":"0.00019580","DECAY_DATE":null,"COUNTRY_CODE":"US","INCLINATION":"53.2186","RCS_SIZE":"LARGE","PERIAPSIS":"348.278","BSTAR":"0.00008498200000","OBJECT_ID":"2022-125Y","TIME_SYSTEM":"UTC","CLASSIFICATION_TYPE":"U","REV_AT_EPOCH":"417","NORAD_CAT_ID":"53986","MEAN_ELEMENT_THEORY":"SGP4","ARG_OF_PERICENTER":"28.0483","CENTER_NAME":"EARTH","PERIOD":"91.530","OBJECT_TYPE":"PAYLOAD","FILE":"3637465","MEAN_MOTION":"15.73257758","LAUNCH_DATE":"2022-10-05","REF_FRAME":"TEME"}];
